ORBCOMM FM20            
1 25416U 98046D   25329.50637711  .00001051  00000+0  39408-3 0  9999
2 25416  44.9922 137.0994 0000822  90.4334 269.6608 14.37604581427478
ORBCOMM FM16            
1 25417U 98046E   25329.44338244  .00001403  00000+0  49145-3 0  9992
2 25417  44.9919 126.7757 0003794  44.1917 315.9234 14.39453916427488
ORBCOMM FM15            
1 25418U 98046F   25329.46018110  .00001395  00000+0  49290-3 0  9993
2 25418  44.9949 132.3322 0003626  45.7403 314.3742 14.39080093427472
ORBCOMM FM14            
1 25419U 98046G   25329.15774858  .00001498  00000+0  52153-3 0  9994
2 25419  44.9941 131.5200 0002336  43.9977 316.1057 14.39490593427406
ORBCOMM FM13            
1 25420U 98046H   25329.48601221  .00001212  00000+0  44259-3 0  9997
2 25420  44.9956 139.5617 0004438  16.6165 343.4828 14.38130489426452
ORBCOMM FM21            
1 25475U 98053A   25329.04550683  .00000933  00000+0  35424-3 0  9995
2 25475  45.0079 227.5269 0002611 331.3594  28.7110 14.37742299420396
ORBCOMM FM22            
1 25476U 98053B   25329.37725270  .00001336  00000+0  47568-3 0  9998
2 25476  45.0068 219.4473 0004094 327.6515  32.4083 14.38901871420485
ORBCOMM FM23            
1 25477U 98053C   25329.09302808  .00001165  00000+0  42833-3 0  9996
2 25477  45.0078 229.1740 0003514 323.2704  36.7903 14.37976335420552
