<?xml version="1.0" encoding="UTF-8"?>
<ndm xmlns:xsi="http://www.w3.org/2001/XMLSchema-instance" xsi:noNamespaceSchemaLocation="https://sanaregistry.org/r/ndmxml_unqualified/ndmxml-2.0.0-master-2.0.xsd">
<omm id="CCSDS_OMM_VERS" version="2.0">
<header><CREATION_DATE/><ORIGINATOR/></header><body><segment><metadata><OBJECT_NAME>ORBCOMM FM20</OBJECT_NAME><OBJECT_ID>1998-046D</OBJECT_ID><CENTER_NAME>EARTH</CENTER_NAME><REF_FRAME>TEME</REF_FRAME><TIME_SYSTEM>UTC</TIME_SYSTEM><MEAN_ELEMENT_THEORY>SGP4</MEAN_ELEMENT_THEORY></metadata><data><meanElements><EPOCH>2025-11-25T12:09:10.982304</EPOCH><MEAN_MOTION>14.37604581</MEAN_MOTION><ECCENTRICITY>.0000822</ECCENTRICITY><INCLINATION>44.9922</INCLINATION><RA_OF_ASC_NODE>137.0994</RA_OF_ASC_NODE><ARG_OF_PERICENTER>90.4334</ARG_OF_PERICENTER><MEAN_ANOMALY>269.6608</MEAN_ANOMALY></meanElements><tleParameters><EPHEMERIS_TYPE>0</EPHEMERIS_TYPE><CLASSIFICATION_TYPE>U</CLASSIFICATION_TYPE><NORAD_CAT_ID>25416</NORAD_CAT_ID><ELEMENT_SET_NO>999</ELEMENT_SET_NO><REV_AT_EPOCH>42747</REV_AT_EPOCH><BSTAR>.39408E-3</BSTAR><MEAN_MOTION_DOT>.1051E-4</MEAN_MOTION_DOT><MEAN_MOTION_DDOT>0</MEAN_MOTION_DDOT></tleParameters></data></segment></body></omm>
<omm id="CCSDS_OMM_VERS" version="2.0">
<header><CREATION_DATE/><ORIGINATOR/></header><body><segment><metadata><OBJECT_NAME>ORBCOMM FM16</OBJECT_NAME><OBJECT_ID>1998-046E</OBJECT_ID><CENTER_NAME>EARTH</CENTER_NAME><REF_FRAME>TEME</REF_FRAME><TIME_SYSTEM>UTC</TIME_SYSTEM><MEAN_ELEMENT_THEORY>SGP4</MEAN_ELEMENT_THEORY></metadata><data><meanElements><EPOCH>2025-11-25T10:38:28.242816</EPOCH><MEAN_MOTION>14.39453916</MEAN_MOTION><ECCENTRICITY>.0003794</ECCENTRICITY><INCLINATION>44.9919</INCLINATION><RA_OF_ASC_NODE>126.7757</RA_OF_ASC_NODE><ARG_OF_PERICENTER>44.1917</ARG_OF_PERICENTER><MEAN_ANOMALY>315.9234</MEAN_ANOMALY></meanElements><tleParameters><EPHEMERIS_TYPE>0</EPHEMERIS_TYPE><CLASSIFICATION_TYPE>U</CLASSIFICATION_TYPE><NORAD_CAT_ID>25417</NORAD_CAT_ID><ELEMENT_SET_NO>999</ELEMENT_SET_NO><REV_AT_EPOCH>42748</REV_AT_EPOCH><BSTAR>.49145E-3</BSTAR><MEAN_MOTION_DOT>.1403E-4</MEAN_MOTION_DOT><MEAN_MOTION_DDOT>0</MEAN_MOTION_DDOT></tleParameters></data></segment></body></omm>
<omm id="CCSDS_OMM_VERS" version="2.0">
<header><CREATION_DATE/><ORIGINATOR/></header><body><segment><metadata><OBJECT_NAME>ORBCOMM FM15</OBJECT_NAME><OBJECT_ID>1998-046F</OBJECT_ID><CENTER_NAME>EARTH</CENTER_NAME><REF_FRAME>TEME</REF_FRAME><TIME_SYSTEM>UTC</TIME_SYSTEM><MEAN_ELEMENT_THEORY>SGP4</MEAN_ELEMENT_THEORY></metadata><data><meanElements><EPOCH>2025-11-25T11:02:39.647040</EPOCH><MEAN_MOTION>14.39080093</MEAN_MOTION><ECCENTRICITY>.0003626</ECCENTRICITY><INCLINATION>44.9949</INCLINATION><RA_OF_ASC_NODE>132.3322</RA_OF_ASC_NODE><ARG_OF_PERICENTER>45.7403</ARG_OF_PERICENTER><MEAN_ANOMALY>314.3742</MEAN_ANOMALY></meanElements><tleParameters><EPHEMERIS_TYPE>0</EPHEMERIS_TYPE><CLASSIFICATION_TYPE>U</CLASSIFICATION_TYPE><NORAD_CAT_ID>25418</NORAD_CAT_ID><ELEMENT_SET_NO>999</ELEMENT_SET_NO><REV_AT_EPOCH>42747</REV_AT_EPOCH><BSTAR>.4929E-3</BSTAR><MEAN_MOTION_DOT>.1395E-4</MEAN_MOTION_DOT><MEAN_MOTION_DDOT>0</MEAN_MOTION_DDOT></tleParameters></data></segment></body></omm>
<omm id="CCSDS_OMM_VERS" version="2.0">
<header><CREATION_DATE/><ORIGINATOR/></header><body><segment><metadata><OBJECT_NAME>ORBCOMM FM14</OBJECT_NAME><OBJECT_ID>1998-046G</OBJECT_ID><CENTER_NAME>EARTH</CENTER_NAME><REF_FRAME>TEME</REF_FRAME><TIME_SYSTEM>UTC</TIME_SYSTEM><MEAN_ELEMENT_THEORY>SGP4</MEAN_ELEMENT_THEORY></metadata><data><meanElements><EPOCH>2025-11-25T03:47:09.477312</EPOCH><MEAN_MOTION>14.39490593</MEAN_MOTION><ECCENTRICITY>.0002336</ECCENTRICITY><INCLINATION>44.9941</INCLINATION><RA_OF_ASC_NODE>131.5200</RA_OF_ASC_NODE><ARG_OF_PERICENTER>43.9977</ARG_OF_PERICENTER><MEAN_ANOMALY>316.1057</MEAN_ANOMALY></meanElements><tleParameters><EPHEMERIS_TYPE>0</EPHEMERIS_TYPE><CLASSIFICATION_TYPE>U</CLASSIFICATION_TYPE><NORAD_CAT_ID>25419</NORAD_CAT_ID><ELEMENT_SET_NO>999</ELEMENT_SET_NO><REV_AT_EPOCH>42740</REV_AT_EPOCH><BSTAR>.52153E-3</BSTAR><MEAN_MOTION_DOT>.1498E-4</MEAN_MOTION_DOT><MEAN_MOTION_DDOT>0</MEAN_MOTION_DDOT></tleParameters></data></segment></body></omm>
<omm id="CCSDS_OMM_VERS" version="2.0">
<header><CREATION_DATE/><ORIGINATOR/></header><body><segment><metadata><OBJECT_NAME>ORBCOMM FM13</OBJECT_NAME><OBJECT_ID>1998-046H</OBJECT_ID><CENTER_NAME>EARTH</CENTER_NAME><REF_FRAME>TEME</REF_FRAME><TIME_SYSTEM>UTC</TIME_SYSTEM><MEAN_ELEMENT_THEORY>SGP4</MEAN_ELEMENT_THEORY></metadata><data><meanElements><EPOCH>2025-11-25T11:39:51.454944</EPOCH><MEAN_MOTION>14.38130489</MEAN_MOTION><ECCENTRICITY>.0004438</ECCENTRICITY><INCLINATION>44.9956</INCLINATION><RA_OF_ASC_NODE>139.5617</RA_OF_ASC_NODE><ARG_OF_PERICENTER>16.6165</ARG_OF_PERICENTER><MEAN_ANOMALY>343.4828</MEAN_ANOMALY></meanElements><tleParameters><EPHEMERIS_TYPE>0</EPHEMERIS_TYPE><CLASSIFICATION_TYPE>U</CLASSIFICATION_TYPE><NORAD_CAT_ID>25420</NORAD_CAT_ID><ELEMENT_SET_NO>999</ELEMENT_SET_NO><REV_AT_EPOCH>42645</REV_AT_EPOCH><BSTAR>.44259E-3</BSTAR><MEAN_MOTION_DOT>.1212E-4</MEAN_MOTION_DOT><MEAN_MOTION_DDOT>0</MEAN_MOTION_DDOT></tleParameters></data></segment></body></omm>
<omm id="CCSDS_OMM_VERS" version="2.0">
<header><CREATION_DATE/><ORIGINATOR/></header><body><segment><metadata><OBJECT_NAME>ORBCOMM FM21</OBJECT_NAME><OBJECT_ID>1998-053A</OBJECT_ID><CENTER_NAME>EARTH</CENTER_NAME><REF_FRAME>TEME</REF_FRAME><TIME_SYSTEM>UTC</TIME_SYSTEM><MEAN_ELEMENT_THEORY>SGP4</MEAN_ELEMENT_THEORY></metadata><data><meanElements><EPOCH>2025-11-25T01:05:31.790112</EPOCH><MEAN_MOTION>14.37742299</MEAN_MOTION><ECCENTRICITY>.0002611</ECCENTRICITY><INCLINATION>45.0079</INCLINATION><RA_OF_ASC_NODE>227.5269</RA_OF_ASC_NODE><ARG_OF_PERICENTER>331.3594</ARG_OF_PERICENTER><MEAN_ANOMALY>28.7110</MEAN_ANOMALY></meanElements><tleParameters><EPHEMERIS_TYPE>0</EPHEMERIS_TYPE><CLASSIFICATION_TYPE>U</CLASSIFICATION_TYPE><NORAD_CAT_ID>25475</NORAD_CAT_ID><ELEMENT_SET_NO>999</ELEMENT_SET_NO><REV_AT_EPOCH>42039</REV_AT_EPOCH><BSTAR>.35424E-3</BSTAR><MEAN_MOTION_DOT>.933E-5</MEAN_MOTION_DOT><MEAN_MOTION_DDOT>0</MEAN_MOTION_DDOT></tleParameters></data></segment></body></omm>
<omm id="CCSDS_OMM_VERS" version="2.0">
<header><CREATION_DATE/><ORIGINATOR/></header><body><segment><metadata><OBJECT_NAME>ORBCOMM FM22</OBJECT_NAME><OBJECT_ID>1998-053B</OBJECT_ID><CENTER_NAME>EARTH</CENTER_NAME><REF_FRAME>TEME</REF_FRAME><TIME_SYSTEM>UTC</TIME_SYSTEM><MEAN_ELEMENT_THEORY>SGP4</MEAN_ELEMENT_THEORY></metadata><data><meanElements><EPOCH>2025-11-25T09:03:14.633280</EPOCH><MEAN_MOTION>14.38901871</MEAN_MOTION><ECCENTRICITY>.0004094</ECCENTRICITY><INCLINATION>45.0068</INCLINATION><RA_OF_ASC_NODE>219.4473</RA_OF_ASC_NODE><ARG_OF_PERICENTER>327.6515</ARG_OF_PERICENTER><MEAN_ANOMALY>32.4083</MEAN_ANOMALY></meanElements><tleParameters><EPHEMERIS_TYPE>0</EPHEMERIS_TYPE><CLASSIFICATION_TYPE>U</CLASSIFICATION_TYPE><NORAD_CAT_ID>25476</NORAD_CAT_ID><ELEMENT_SET_NO>999</ELEMENT_SET_NO><REV_AT_EPOCH>42048</REV_AT_EPOCH><BSTAR>.47568E-3</BSTAR><MEAN_MOTION_DOT>.1336E-4</MEAN_MOTION_DOT><MEAN_MOTION_DDOT>0</MEAN_MOTION_DDOT></tleParameters></data></segment></body></omm>
<omm id="CCSDS_OMM_VERS" version="2.0">
<header><CREATION_DATE/><ORIGINATOR/></header><body><segment><metadata><OBJECT_NAME>ORBCOMM FM23</OBJECT_NAME><OBJECT_ID>1998-053C</OBJECT_ID><CENTER_NAME>EARTH</CENTER_NAME><REF_FRAME>TEME</REF_FRAME><TIME_SYSTEM>UTC</TIME_SYSTEM><MEAN_ELEMENT_THEORY>SGP4</MEAN_ELEMENT_THEORY></metadata><data><meanElements><EPOCH>2025-11-25T02:13:57.626112</EPOCH><MEAN_MOTION>14.37976335</MEAN_MOTION><ECCENTRICITY>.0003514</ECCENTRICITY><INCLINATION>45.0078</INCLINATION><RA_OF_ASC_NODE>229.1740</RA_OF_ASC_NODE><ARG_OF_PERICENTER>323.2704</ARG_OF_PERICENTER><MEAN_ANOMALY>36.7903</MEAN_ANOMALY></meanElements><tleParameters><EPHEMERIS_TYPE>0</EPHEMERIS_TYPE><CLASSIFICATION_TYPE>U</CLASSIFICATION_TYPE><NORAD_CAT_ID>25477</NORAD_CAT_ID><ELEMENT_SET_NO>999</ELEMENT_SET_NO><REV_AT_EPOCH>42055</REV_AT_EPOCH><BSTAR>.42833E-3</BSTAR><MEAN_MOTION_DOT>.1165E-4</MEAN_MOTION_DOT><MEAN_MOTION_DDOT>0</MEAN_MOTION_DDOT></tleParameters></data></segment></body></omm>

</ndm>
